{
  "type": "FeatureCollection",
  "features": [
    {
      "type": "Feature",
      "properties": {
        "norad_id": 66174,
        "name": "HTV-X1",
        "group": "stations",
        "lat": 24.412060964764446,
        "lon": -127.68758002882964,
        "alt_km": 416.2897875790741,
        "timestamp": "2025-12-26T16:33:54.365210+00:00",
        "meta_object_name": "HTV-X1",
        "meta_object_id": "2025-241A",
        "meta_epoch": "2025-12-26T05:05:45.767328",
        "meta_mean_motion": 15.49833819,
        "meta_eccentricity": 0.00032367,
        "meta_inclination": 51.6319,
        "meta_ra_of_asc_node": 75.7553,
        "meta_arg_of_pericenter": 303.1667,
        "meta_mean_anomaly": 56.9011,
        "meta_ephemeris_type": 0,
        "meta_classification_type": "U",
        "meta_norad_cat_id": 66174,
        "meta_element_set_no": 999,
        "meta_rev_at_epoch": 51,
        "meta_bstar": 0.00025187037,
        "meta_mean_motion_dot": 0.00013862,
        "meta_mean_motion_ddot": 0,
        "tle_line1": "1 66174U 25241A   25360.21233527  .00013862  00000+0  25187-3 0  9994",
        "tle_line2": "2 66174  51.6319  75.7553 0003236 303.1667  56.9011 15.49833819   512"
      },
      "geometry": {
        "type": "Point",
        "coordinates": [
          -127.68758002882964,
          24.412060964764446
        ]
      }
    },
    {
      "type": "Feature",
      "properties": {
        "norad_id": 66515,
        "name": "SZ-21 MODULE",
        "group": "stations",
        "lat": 12.664644031665677,
        "lon": 96.16134575452303,
        "alt_km": 379.2334280743862,
        "timestamp": "2025-12-26T16:33:54.365220+00:00",
        "meta_object_name": "SZ-21 MODULE",
        "meta_object_id": "2025-246C",
        "meta_epoch": "2025-12-25T04:36:53.601984",
        "meta_mean_motion": 15.63137537,
        "meta_eccentricity": 0.0004589,
        "meta_inclination": 41.4767,
        "meta_ra_of_asc_node": 300.0489,
        "meta_arg_of_pericenter": 327.9877,
        "meta_mean_anomaly": 32.0683,
        "meta_ephemeris_type": 0,
        "meta_classification_type": "U",
        "meta_norad_cat_id": 66515,
        "meta_element_set_no": 999,
        "meta_rev_at_epoch": 639,
        "meta_bstar": 0.00031272,
        "meta_mean_motion_dot": 0.00029146,
        "meta_mean_motion_ddot": 0,
        "tle_line1": "1 66515U 25246C   25359.19228706  .00029146  00000+0  31272-3 0  9990",
        "tle_line2": "2 66515  41.4767 300.0489 0004589 327.9877  32.0683 15.63137537  6398"
      },
      "geometry": {
        "type": "Point",
        "coordinates": [
          96.16134575452303,
          12.664644031665677
        ]
      }
    },
    {
      "type": "Feature",
      "properties": {
        "norad_id": 66645,
        "name": "SHENZHOU-22",
        "group": "stations",
        "lat": 40.94328370111115,
        "lon": 11.212504209729753,
        "alt_km": 379.87521894621204,
        "timestamp": "2025-12-26T16:33:54.365230+00:00",
        "meta_object_name": "SHENZHOU-22",
        "meta_object_id": "2025-272A",
        "meta_epoch": "2025-12-26T05:27:30.670848",
        "meta_mean_motion": 15.59708409,
        "meta_eccentricity": 0.00085179,
        "meta_inclination": 41.468,
        "meta_ra_of_asc_node": 294.7909,
        "meta_arg_of_pericenter": 149.5046,
        "meta_mean_anomaly": 210.6289,
        "meta_ephemeris_type": 0,
        "meta_classification_type": "U",
        "meta_norad_cat_id": 66645,
        "meta_element_set_no": 999,
        "meta_rev_at_epoch": 26598,
        "meta_bstar": 0.00023601706,
        "meta_mean_motion_dot": 0.00019151,
        "meta_mean_motion_ddot": 0,
        "tle_line1": "1 66645U 25272A   25360.22743832  .00019151  00000+0  23602-3 0  9994",
        "tle_line2": "2 66645  41.4680 294.7909 0008517 149.5046 210.6289 15.59708409265988"
      },
      "geometry": {
        "type": "Point",
        "coordinates": [
          11.212504209729753,
          40.94328370111115
        ]
      }
    },
    {
      "type": "Feature",
      "properties": {
        "norad_id": 66664,
        "name": "SOYUZ-MS 28",
        "group": "stations",
        "lat": 24.412059593626328,
        "lon": -127.68757862652562,
        "alt_km": 416.28978777197335,
        "timestamp": "2025-12-26T16:33:54.365239+00:00",
        "meta_object_name": "SOYUZ-MS 28",
        "meta_object_id": "2025-275A",
        "meta_epoch": "2025-12-26T05:05:45.767328",
        "meta_mean_motion": 15.49833819,
        "meta_eccentricity": 0.00032367,
        "meta_inclination": 51.6319,
        "meta_ra_of_asc_node": 75.7553,
        "meta_arg_of_pericenter": 303.1667,
        "meta_mean_anomaly": 56.9011,
        "meta_ephemeris_type": 0,
        "meta_classification_type": "U",
        "meta_norad_cat_id": 66664,
        "meta_element_set_no": 999,
        "meta_rev_at_epoch": 128,
        "meta_bstar": 0.00025187037,
        "meta_mean_motion_dot": 0.00013862,
        "meta_mean_motion_ddot": 0,
        "tle_line1": "1 66664U 25275A   25360.21233527  .00013862  00000+0  25187-3 0  9995",
        "tle_line2": "2 66664  51.6319  75.7553 0003236 303.1667  56.9011 15.49833819  1281"
      },
      "geometry": {
        "type": "Point",
        "coordinates": [
          -127.68757862652562,
          24.412059593626328
        ]
      }
    },
    {
      "type": "Feature",
      "properties": {
        "norad_id": 66906,
        "name": "1998-067XS",
        "group": "stations",
        "lat": -43.20762174219545,
        "lon": -58.717157796529875,
        "alt_km": 415.6678923021773,
        "timestamp": "2025-12-26T16:33:54.365248+00:00",
        "meta_object_name": "1998-067XS",
        "meta_object_id": "1998-067XS",
        "meta_epoch": "2025-12-26T06:15:17.316576",
        "meta_mean_motion": 15.5130022,
        "meta_eccentricity": 0.00026696,
        "meta_inclination": 51.6322,
        "meta_ra_of_asc_node": 75.3293,
        "meta_arg_of_pericenter": 271.0578,
        "meta_mean_anomaly": 89.0106,
        "meta_ephemeris_type": 0,
        "meta_classification_type": "U",
        "meta_norad_cat_id": 66906,
        "meta_element_set_no": 999,
        "meta_rev_at_epoch": 371,
        "meta_bstar": 0.00043777364,
        "meta_mean_motion_dot": 0.00025789,
        "meta_mean_motion_ddot": 0,
        "tle_line1": "1 66906U 98067XS  25360.26061709  .00025789  00000+0  43777-3 0  9995",
        "tle_line2": "2 66906  51.6322  75.3293 0002669 271.0578  89.0106 15.51300220  3714"
      },
      "geometry": {
        "type": "Point",
        "coordinates": [
          -58.717157796529875,
          -43.20762174219545
        ]
      }
    },
    {
      "type": "Feature",
      "properties": {
        "norad_id": 66907,
        "name": "1998-067XT",
        "group": "stations",
        "lat": -27.095374245306356,
        "lon": 49.104556555454934,
        "alt_km": 408.41821140368575,
        "timestamp": "2025-12-26T16:33:54.365258+00:00",
        "meta_object_name": "1998-067XT",
        "meta_object_id": "1998-067XT",
        "meta_epoch": "2025-12-24T10:39:56.166048",
        "meta_mean_motion": 15.52879993,
        "meta_eccentricity": 0.00038856,
        "meta_inclination": 51.6313,
        "meta_ra_of_asc_node": 84.2012,
        "meta_arg_of_pericenter": 298.2919,
        "meta_mean_anomaly": 61.7678,
        "meta_ephemeris_type": 0,
        "meta_classification_type": "U",
        "meta_norad_cat_id": 66907,
        "meta_element_set_no": 999,
        "meta_rev_at_epoch": 343,
        "meta_bstar": 0.0010726177,
        "meta_mean_motion_dot": 0.00067981,
        "meta_mean_motion_ddot": 0,
        "tle_line1": "1 66907U 98067XT  25358.44440007  .00067981  00000+0  10726-2 0  9992",
        "tle_line2": "2 66907  51.6313  84.2012 0003885 298.2919  61.7678 15.52879993  3433"
      },
      "geometry": {
        "type": "Point",
        "coordinates": [
          49.104556555454934,
          -27.095374245306356
        ]
      }
    },
    {
      "type": "Feature",
      "properties": {
        "norad_id": 66908,
        "name": "1998-067XU",
        "group": "stations",
        "lat": -22.363327617513438,
        "lon": 53.985039252503896,
        "alt_km": 407.96255509669027,
        "timestamp": "2025-12-26T16:33:54.365267+00:00",
        "meta_object_name": "1998-067XU",
        "meta_object_id": "1998-067XU",
        "meta_epoch": "2025-12-26T05:52:50.075328",
        "meta_mean_motion": 15.53197536,
        "meta_eccentricity": 0.00038191,
        "meta_inclination": 51.6316,
        "meta_ra_of_asc_node": 75.226,
        "meta_arg_of_pericenter": 307.4311,
        "meta_mean_anomaly": 52.6331,
        "meta_ephemeris_type": 0,
        "meta_classification_type": "U",
        "meta_norad_cat_id": 66908,
        "meta_element_set_no": 999,
        "meta_rev_at_epoch": 371,
        "meta_bstar": 0.00091736042,
        "meta_mean_motion_dot": 0.00058677,
        "meta_mean_motion_ddot": 0,
        "tle_line1": "1 66908U 98067XU  25360.24502402  .00058677  00000+0  91736-3 0  9995",
        "tle_line2": "2 66908  51.6316  75.2260 0003819 307.4311  52.6331 15.53197536  3711"
      },
      "geometry": {
        "type": "Point",
        "coordinates": [
          53.985039252503896,
          -22.363327617513438
        ]
      }
    }
  ]
}